[{"OBJECT_NAME":"STARLINK-36255","OBJECT_ID":"2025-299A","EPOCH":"2026-03-09T18:01:54.203520","MEAN_MOTION":15.30999452,"ECCENTRICITY":0.00019102,"INCLINATION":43.0001,"RA_OF_ASC_NODE":168.8294,"ARG_OF_PERICENTER":290.3386,"MEAN_ANOMALY":69.7262,"EPHEMERIS_TYPE":0,"CLASSIFICATION_TYPE":"U","NORAD_CAT_ID":67102,"ELEMENT_SET_NO":999,"REV_AT_EPOCH":1312,"BSTAR":-0.011338203,"MEAN_MOTION_DOT":-0.00332006,"MEAN_MOTION_DDOT":0},{"OBJECT_NAME":"CZ-6A DEB","OBJECT_ID":"2022-151ME","EPOCH":"2026-03-09T17:07:50.636064","MEAN_MOTION":15.20556855,"ECCENTRICITY":0.00283971,"INCLINATION":98.6182,"RA_OF_ASC_NODE":149.2426,"ARG_OF_PERICENTER":178.5587,"MEAN_ANOMALY":181.5732,"EPHEMERIS_TYPE":0,"CLASSIFICATION_TYPE":"U","NORAD_CAT_ID":54578,"ELEMENT_SET_NO":999,"REV_AT_EPOCH":10518,"BSTAR":0.0077423675,"MEAN_MOTION_DOT":0.00175116,"MEAN_MOTION_DDOT":0}]
